GLOBALSTAR M045         
1 25676U 99019A   25203.21487271 -.00000066  00000+0  24415-3 0  9999
2 25676  51.9938 205.4330 0000358 285.4977 156.3034 12.27064232197938
GLOBALSTAR M044         
1 25678U 99019C   25203.18801391 -.00000110  00000+0 -37305-3 0  9993
2 25678  51.9982 294.0806 0006535 110.9328 260.7724 11.90254392175474
GLOBALSTAR M025         
1 25770U 99031A   25203.05482404 -.00000064  00000+0  97576-4 0  9990
2 25770  51.9824  78.4980 0001130 193.5996 315.8431 11.22560840143287
GLOBALSTAR M049         
1 25771U 99031B   25202.95337549 -.00000092  00000+0 -92457-3 0  9992
2 25771  51.9872 115.2443 0003391  59.3215 300.7915 11.12117149121295
GLOBALSTAR M047         
1 25772U 99031C   25202.94250915 -.00000083  00000+0 -38561-3 0  9999
2 25772  51.9831 108.9175 0016722 324.5907  35.3788 11.31929098475048
GLOBALSTAR M052         
1 25773U 99031D   25202.76834564 -.00000080  00000+0 -49039-3 0  9997
2 25773  51.9828 223.8522 0002926 233.4569 298.1408 11.15060230482368
